[
    {
        "Altitude(m)": 605470.7780394953,
        "Argument of Periapsis(deg)": 0.0,
        "Eccentricity": 0.0,
        "Inclination(deg)": 60.0,
        "Latitude(deg)": 27.98816731809418,
        "Longitude(deg)": 27.262888831550995,
        "Mean Anomaly(deg)": -212.7273,
        "RAAN(deg)": 325.0,
        "Satellite Name": "Test1 1439",
        "Satellite Number": 1439,
        "Semi-Major Axis(m)": 6980739.136638005,
        "Time(s)": 0
    },
    {
        "Altitude(m)": 605395.8162776633,
        "Argument of Periapsis(deg)": 0.00010418945913296404,
        "Eccentricity": 0.0,
        "Inclination(deg)": 60.0,
        "Latitude(deg)": 27.473858693664713,
        "Longitude(deg)": 27.616077742710566,
        "Mean Anomaly(deg)": -212.10719385453817,
        "RAAN(deg)": 324.99957995086027,
        "Satellite Name": "Test1 1439",
        "Satellite Number": 1439,
        "Semi-Major Axis(m)": 6980739.136638005,
        "Time(s)": 10
    }
]